IRIDIUM 36 [-]          
1 24967U 97056C   24015.55053885  .00000765  00000+0  25376-3 0  9999
2 24967  86.3953  30.7562 0002051  92.1762 267.9670 14.36582772377731
IRIDIUM 39 [-]          
1 25042U 97069D   24015.57537556  .00001234  00000+0  32916-3 0  9992
2 25042  86.3893  73.2884 0016631 232.5496 127.4195 14.47624869373892
IRIDIUM 38 [-]          
1 25043U 97069E   24015.60641286  .00000865  00000+0  28498-3 0  9992
2 25043  86.3949  91.2076 0003259  58.0318 302.1196 14.37054048371452
IRIDIUM 42 [-]          
1 25077U 97077A   24015.61719753  .00000795  00000+0  27071-3 0  9992
2 25077  86.3958  96.7430 0002290  76.6767 283.4685 14.35349940366781
IRIDIUM 44 [-]          
1 25078U 97077B   24015.56842364  .00000853  00000+0  26929-3 0  9998
2 25078  86.3935  80.0712 0000741  33.5979 326.5266 14.39162219369088
IRIDIUM 45 [-]          
1 25104U 97082A   24015.25804063  .00019502  00000+0  11909-2 0  9996
2 25104  86.3762 294.2513 0175750  77.6624 284.4218 14.98097191373774
IRIDIUM 24 [-]          
1 25105U 97082B   24015.29013441  .00001205  00000+0  36924-3 0  9999
2 25105  86.3921 300.0448 0011575   2.1018 358.0228 14.40934027368463
IRIDIUM 51 [-]          
1 25262U 98018A   24015.26750115  .00029566  00000+0  15389-2 0  9997
2 25262  86.3909 304.5146 0160416  29.2077 331.8009 15.05334518368211
